SatCatId,ObjectName,LaunchYear,OrbitalPeriod,LaunchMass,StatusCode,Inclination,Status,UcsData,OrbitClassEstimated,LaunchSiteCountry,Owner,UseType,Purpose,LaunchVehicleClass,TLE1,TLE2,MeanMotion,Eccentricity,OrbitClass
55338,STARLINK-5658,2023,95.84,-1.0,+,43.0,Active,0,LEO,USA,USA,Unknown,Unknown,Falcon,1 55338U 23013H   23276.46102427  .00000148  00000+0  26052-4 0  9990,2 55338  43.0032  86.9850 0001167 285.4004  74.6710 15.02533904 38099,15.02533904,0.0001167,LEO
55339,STARLINK-5671,2023,95.84,-1.0,+,43.0,Active,0,LEO,USA,USA,Unknown,Unknown,Falcon,1 55339U 23013J   23276.58842917  .00001714  00000+0  14193-3 0  9991,2 55339  43.0030  86.2218 0001359 278.7977  81.2712 15.02541035 38119,15.02541035,0.0001359,LEO
55340,STARLINK-5675,2023,95.84,-1.0,+,43.0,Active,0,LEO,USA,USA,Unknown,Unknown,Falcon,1 55340U 23013K   23276.45325731  .00001441  00000+0  12171-3 0  9990,2 55340  43.0033  86.9255 0001339 270.9401  89.1288 15.02535472 38096,15.02535472,0.0001339,LEO
55341,STARLINK-5670,2023,95.84,-1.0,+,43.0,Active,0,LEO,USA,USA,Unknown,Unknown,Falcon,1 55341U 23013L   23276.59064911  .00000693  00000+0  66392-4 0  9999,2 55341  43.0027  86.2381 0001355 274.0314  86.0373 15.02538883 38112,15.02538883,0.0001355,LEO
55342,STARLINK-5657,2023,95.84,-1.0,+,43.0,Active,0,LEO,USA,USA,Unknown,Unknown,Falcon,1 55342U 23013M   23276.58509834  .00000564  00000+0  56798-4 0  9993,2 55342  43.0029  86.1965 0001251 278.4811  81.5889 15.02542910 38115,15.0254291,0.0001251,LEO
55343,STARLINK-5661,2023,95.84,-1.0,+,43.0,Active,0,LEO,USA,USA,Unknown,Unknown,Falcon,1 55343U 23013N   23276.57955426 -.00002055  00000+0 -13712-3 0  9992,2 55343  43.0030  86.1544 0001071 277.1768  82.8953 15.02539993 38111,15.02539993,0.0001071,LEO
55344,STARLINK-5662,2023,95.84,-1.0,+,43.0,Active,0,LEO,USA,USA,Unknown,Unknown,Falcon,1 55344U 23013P   23276.51529503 -.00000851  00000+0 -47940-4 0  9993,2 55344  43.0027  86.5325 0001155 273.8282  86.2429 15.02532895 38105,15.02532895,0.0001155,LEO
55345,STARLINK-5653,2023,95.84,-1.0,+,43.0,Active,0,LEO,USA,USA,Unknown,Unknown,Falcon,1 55345U 23013Q   23276.44906996  .00005515  00000+0  42300-3 0  9995,2 55345  43.0031  73.8624 0001366 263.1231  96.9456 15.02536087 38242,15.02536087,0.0001366,LEO
55346,STARLINK-5631,2023,95.84,-1.0,+,43.0,Active,0,LEO,USA,USA,Unknown,Unknown,Falcon,1 55346U 23013R   23276.57622486 -.00000285  00000+0 -60532-5 0  9999,2 55346  43.0031  86.1289 0001216 270.0718  89.9985 15.02532511 38111,15.02532511,0.0001216,LEO
55347,STARLINK-5663,2023,95.84,-1.0,+,43.0,Active,0,LEO,USA,USA,Unknown,Unknown,Falcon,1 55347U 23013S   23275.90033975  .00003845  00000+0  29948-3 0  9992,2 55347  43.0031  89.6562 0001323 266.3314  93.7377 15.02543045 38014,15.02543045,0.0001323,LEO
55348,STARLINK-5609,2023,95.84,-1.0,+,43.0,Active,0,LEO,USA,USA,Unknown,Unknown,Falcon,1 55348U 23013T   23276.57400342 -.00000635  00000+0 -31911-4 0  9993,2 55348  43.0029  86.1129 0001032 275.3477  84.7248 15.02531776 38116,15.02531776,0.0001032,LEO
55349,STARLINK-5666,2023,95.84,-1.0,+,43.0,Active,0,LEO,USA,USA,Unknown,Unknown,Falcon,1 55349U 23013U   23276.50419411 -.00000148  00000+0  40984-5 0  9993,2 55349  43.0024  86.4474 0001234 269.3775  90.6926 15.02533600 38102,15.025336,0.0001234,LEO
55350,STARLINK-5668,2023,95.84,-1.0,+,43.0,Active,0,LEO,USA,USA,Unknown,Unknown,Falcon,1 55350U 23013V   23276.16847567  .00002786  00000+0  22125-3 0  9998,2 55350  43.0027  88.2277 0001092 284.9664  75.1058 15.02530029 38487,15.02530029,0.0001092,LEO
55351,STARLINK-5659,2023,95.84,-1.0,+,43.0,Active,0,LEO,USA,USA,Unknown,Unknown,Falcon,1 55351U 23013W   23275.95793787  .00002598  00000+0  20726-3 0  9995,2 55351  43.0032  89.2297 0001275 275.3894  84.6803 15.02542199 38023,15.02542199,0.0001275,LEO
55352,STARLINK-5547,2023,95.84,-1.0,+,43.0,Active,0,LEO,USA,USA,Unknown,Unknown,Falcon,1 55352U 23013X   23275.89701527 -.00000552  00000+0 -25829-4 0  9990,2 55352  43.0033  89.6316 0001014 265.7936  94.2791 15.02532412 38011,15.02532412,0.0001014,LEO
55353,STARLINK-5608,2023,95.84,-1.0,+,43.0,Active,0,LEO,USA,USA,Unknown,Unknown,Falcon,1 55353U 23013Y   23276.20942804 -.00000691  00000+0 -36088-4 0  9995,2 55353  43.0039  87.6750 0000958 283.8382  76.2354 15.02531696 38063,15.02531696,9.58e-05,LEO
55354,STARLINK-5649,2023,95.84,-1.0,+,43.0,Active,0,LEO,USA,USA,Unknown,Unknown,Falcon,1 55354U 23013Z   23275.89479423 -.00000413  00000+0 -15500-4 0  9990,2 55354  43.0042  89.6124 0001091 268.5414  91.5303 15.02533244 38010,15.02533244,0.0001091,LEO
55355,STARLINK-5647,2023,95.84,-1.0,+,43.0,Active,0,LEO,USA,USA,Unknown,Unknown,Falcon,1 55355U 23013AA  23275.88813042  .00001308  00000+0  11189-3 0  9999,2 55355  43.0027  89.5440 0001148 267.3875  92.6836 15.02539317 38015,15.02539317,0.0001148,LEO
55357,STARLINK-5651,2023,95.84,-1.0,+,43.0,Active,0,LEO,USA,USA,Unknown,Unknown,Falcon,1 55357U 23013AC  23276.48421408  .00005218  00000+0  40100-3 0  9998,2 55357  43.0028  86.2975 0001074 266.1937  93.8783 15.02539737 38536,15.02539737,0.0001074,LEO
55358,STARLINK-5622,2023,95.84,-1.0,+,43.0,Active,0,LEO,USA,USA,Unknown,Unknown,Falcon,1 55358U 23013AD  23275.88924010  .00005684  00000+0  43537-3 0  9993,2 55358  43.0029  89.5716 0001266 266.8278  93.2419 15.02547450 38019,15.0254745,0.0001266,LEO
55359,STARLINK-5641,2023,95.84,-1.0,+,43.0,Active,0,LEO,USA,USA,Unknown,Unknown,Falcon,1 55359U 23013AE  23275.88258208  .00001699  00000+0  14081-3 0  9997,2 55359  43.0025  89.5204 0001233 267.8270  92.2431 15.02538911 38010,15.02538911,0.0001233,LEO
55360,STARLINK-5664,2023,95.84,-1.0,+,43.0,Active,0,LEO,USA,USA,Unknown,Unknown,Falcon,1 55360U 23013AF  23276.19806226  .00002232  00000+0  18025-3 0  9999,2 55360  43.0016 100.5797 0001312 261.6289  98.4405 15.02540091 37912,15.02540091,0.0001312,LEO
55361,STARLINK-5665,2023,95.84,-1.0,+,43.0,Active,0,LEO,USA,USA,Unknown,Unknown,Falcon,1 55361U 23013AG  23276.56759826  .00002742  00000+0  21799-3 0  9992,2 55361  43.0031  73.0485 0001332 272.3635  87.7055 15.02539017 38261,15.02539017,0.0001332,LEO
55362,STARLINK-5574,2023,95.84,-1.0,+,43.0,Active,0,LEO,USA,USA,Unknown,Unknown,Falcon,1 55362U 23013AH  23276.43797414 -.00000863  00000+0 -48844-4 0  9999,2 55362  43.0035  73.7967 0001063 287.8568  72.2159 15.02535618 38677,15.02535618,0.0001063,LEO
55363,STARLINK-5648,2023,95.84,-1.0,+,43.0,Active,0,LEO,USA,USA,Unknown,Unknown,Falcon,1 55363U 23013AJ  23275.57990368  .00000224  00000+0  31617-4 0  9996,2 55363  43.0019 104.5459 0001239 268.7989  91.2712 15.02536262 38244,15.02536262,0.0001239,LEO
55364,STARLINK-5627,2023,95.84,-1.0,+,43.0,Active,0,LEO,USA,USA,Unknown,Unknown,Falcon,1 55364U 23013AK  23276.21275193  .00001281  00000+0  10989-3 0  9993,2 55364  43.0029  87.6991 0001307 269.5042  90.5650 15.02538048 38060,15.02538048,0.0001307,LEO
55365,STARLINK-5639,2023,95.84,-1.0,+,43.0,Active,0,LEO,USA,USA,Unknown,Unknown,Falcon,1 55365U 23013AL  23276.23802393  .00002371  00000+0  19055-3 0  9998,2 55365  43.0023 100.8808 0001200 269.2266  90.8439 15.02537948 37916,15.02537948,0.00012,LEO
55366,STARLINK-5654,2023,95.84,-1.0,+,43.0,Active,0,LEO,USA,USA,Unknown,Unknown,Falcon,1 55366U 23013AM  23276.50666948  .00000283  00000+0  35991-4 0  9991,2 55366  43.0039  73.4524 0001139 273.3152  86.7560 15.02535154 38686,15.02535154,0.0001139,LEO
55367,STARLINK-5635,2023,95.84,-1.0,+,43.0,Active,0,LEO,USA,USA,Unknown,Unknown,Falcon,1 55367U 23013AN  23276.56204667  .00001213  00000+0  10485-3 0  9998,2 55367  43.0036  73.0059 0001218 272.3003  87.7700 15.02539710 38268,15.0253971,0.0001218,LEO
55368,STARLINK-5625,2023,95.84,-1.0,+,43.0,Active,0,LEO,USA,USA,Unknown,Unknown,Falcon,1 55368U 23013AP  23276.56427010  .00009662  00000+0  72927-3 0  9993,2 55368  43.0020  73.0231 0001226 276.4839  83.5863 15.02539728 38268,15.02539728,0.0001226,LEO
55369,STARLINK-5644,2023,95.84,-1.0,+,43.0,Active,0,LEO,USA,USA,Unknown,Unknown,Falcon,1 55369U 23013AQ  23276.23580309  .00006104  00000+0  46644-3 0  9994,2 55369  43.0023 100.8632 0001428 273.5376  86.5303 15.02543076 37918,15.02543076,0.0001428,LEO
55370,STARLINK-5027,2023,95.84,-1.0,+,43.0,Active,0,LEO,USA,USA,Unknown,Unknown,Falcon,1 55370U 23013AR  23276.50726835  .00002285  00000+0  18423-3 0  9992,2 55370  43.0007  99.4630 0001023 278.2114  81.8612 15.02529204 37958,15.02529204,0.0001023,LEO
55371,STARLINK-5590,2023,95.84,-1.0,+,43.0,Active,0,LEO,USA,USA,Unknown,Unknown,Falcon,1 55371U 23013AS  23276.22692405  .00002703  00000+0  21505-3 0  9997,2 55371  43.0017 100.7971 0001271 280.4595  79.6104 15.02540853 38839,15.02540853,0.0001271,LEO
55372,STARLINK-5568,2023,95.84,-1.0,+,43.0,Active,0,LEO,USA,USA,Unknown,Unknown,Falcon,1 55372U 23013AT  23276.23247390  .00004652  00000+0  35918-3 0  9996,2 55372  43.0023 100.8408 0001377 267.6148  92.4537 15.02542960 37913,15.0254296,0.0001377,LEO
55373,STARLINK-5581,2023,95.89,-1.0,+,43.0,Active,0,LEO,USA,USA,Unknown,Unknown,Falcon,1 55373U 23013AU  23276.50711791  .00002674  00000+0  21745-3 0  9993,2 55373  43.0027  99.4538 0001313 271.2916  88.7775 15.01727536 37958,15.01727536,0.0001313,LEO
55374,STARLINK-5578,2023,95.84,-1.0,+,43.0,Active,0,LEO,USA,USA,Unknown,Unknown,Falcon,1 55374U 23013AV  23276.23023810 -.00002309  00000+0 -15587-3 0  9996,2 55374  43.0019 100.8231 0001296 267.0723  92.9971 15.02543048 37912,15.02543048,0.0001296,LEO
55375,STARLINK-5588,2023,95.84,-1.0,+,43.0,Active,0,LEO,USA,USA,Unknown,Unknown,Falcon,1 55375U 23013AW  23275.88898836 -.00000541  00000+0 -25002-4 0  9995,2 55375  43.0016 102.5619 0001230 278.4542  81.6161 15.02532215 37866,15.02532215,0.000123,LEO
55376,STARLINK-5586,2023,95.84,-1.0,+,43.0,Active,0,LEO,USA,USA,Unknown,Unknown,Falcon,1 55376U 23013AX  23276.55871667 -.00000808  00000+0 -44759-4 0  9990,2 55376  43.0037  72.9803 0001134 274.5950  85.4763 15.02540271 38264,15.02540271,0.0001134,LEO
